NORAD_CAT_ID,OBJECT_NAME,OBJECT_TYPE,EPOCH,MEAN_MOTION,ECCENTRICITY,INCLINATION,RA_OF_ASC_NODE,ARG_OF_PERICENTER,MEAN_ANOMALY,BSTAR,MEAN_MOTION_DOT,MEAN_MOTION_DDOT,TLE_LINE0,TLE_LINE1,TLE_LINE2,SEMIMAJOR_AXIS,PERIOD,APOGEE,PERIGEE,DECAYED
51994.0,STARLINK-3647,PAYLOAD,2024-01-27 21:38:47,15.08838771,0.0001265,53.2163,243.8105,102.4147,257.6987,3.5089e-05,2.71e-06,0.0,0 STARLINK-3647,1 51994U 22025AQ  24027.90193433  .00000271  00000-0  35089-4 0  9995,2 51994  53.2163 243.8105 0001265 102.4147 257.6987 15.08838771104407,6917.884,95.438,540.624,538.874,0.0
51994.0,STARLINK-3647,PAYLOAD,2024-01-28 13:32:39,15.08785752,0.0001707,53.2168,240.8377,96.4396,263.679,0.0006628,0.00010261,0.0,0 STARLINK-3647,1 51994U 22025AQ  24028.56434133  .00010261  00000-0  66280-3 0  9999,2 51994  53.2168 240.8377 0001707  96.4396 263.6790 15.08785752104509,6918.046,95.441,541.092,538.73,0.0
51994.0,STARLINK-3647,PAYLOAD,2024-01-28 21:29:35,15.08788649,0.0001696,53.2167,239.3515,92.0541,268.0645,0.00068732,0.00010652,0.0,0 STARLINK-3647,1 51994U 22025AQ  24028.89554805  .00010652  00000-0  68732-3 0  9992,2 51994  53.2167 239.3515 0001696  92.0541 268.0645 15.08788649104557,6918.037,95.441,541.076,538.729,0.0
51994.0,STARLINK-3647,PAYLOAD,2024-01-29 13:23:25,15.08840255,0.0001432,53.2167,236.3771,79.7298,280.3856,0.00011164,1.489e-05,0.0,0 STARLINK-3647,1 51994U 22025AQ  24029.55793398  .00001489  00000-0  11164-3 0  9993,2 51994  53.2167 236.3771 0001432  79.7298 280.3856 15.08840255106181,6917.88,95.438,540.735,538.754,0.0
51994.0,STARLINK-3647,PAYLOAD,2024-01-30 13:14:12,15.0884361,0.0001268,53.2161,231.9153,84.9765,275.1372,7.5848e-05,9.2e-06,0.0,0 STARLINK-3647,1 51994U 22025AQ  24030.55153323  .00000920  00000-0  75848-4 0  9992,2 51994  53.2161 231.9153 0001268  84.9765 275.1372 15.08843610104804,6917.869,95.437,540.612,538.857,0.0
51994.0,STARLINK-3647,PAYLOAD,2024-01-30 19:35:45,15.08843225,0.000123,53.2158,230.7253,88.1196,271.9937,6.4594e-05,7.4e-06,0.0,0 STARLINK-3647,1 51994U 22025AQ  24030.81649313  .00000740  00000-0  64594-4 0  9996,2 51994  53.2158 230.7253 0001230  88.1196 271.9937 15.08843225106378,6917.871,95.437,540.586,538.885,0.0
51994.0,STARLINK-3647,PAYLOAD,2024-01-31 13:04:59,15.08838321,0.0001344,53.2155,227.4557,88.6484,271.4662,6.0074e-06,-1.92e-06,0.0,0 STARLINK-3647,1 51994U 22025AQ  24031.54513769 -.00000192  00000-0  60074-5 0  9994,2 51994  53.2155 227.4557 0001344  88.6484 271.4662 15.08838321104959,6917.886,95.438,540.68,538.821,0.0
51994.0,STARLINK-3647,PAYLOAD,2024-01-31 22:37:18,15.08838839,0.000138,53.2157,225.6716,90.6651,269.4499,9.0971e-06,-1.43e-06,0.0,0 STARLINK-3647,1 51994U 22025AQ  24031.94257732 -.00000143  00000-0  90971-5 0  9998,2 51994  53.2157 225.6716 0001380  90.6651 269.4499 15.08838839105014,6917.884,95.438,540.704,538.794,0.0
51994.0,STARLINK-3647,PAYLOAD,2024-02-01 14:31:09,15.08839674,0.0001475,53.2167,222.6987,95.8092,264.3069,7.9288e-05,9.74e-06,0.0,0 STARLINK-3647,1 51994U 22025AQ  24032.60497430  .00000974  00000-0  79288-4 0  9991,2 51994  53.2167 222.6987 0001475  95.8092 264.3069 15.08839674105119,6917.881,95.438,540.767,538.726,0.0
51994.0,STARLINK-3647,PAYLOAD,2024-02-02 12:46:33,15.08839281,0.000142,53.2165,218.5354,85.261,274.8544,3.1442e-05,2.12e-06,0.0,0 STARLINK-3647,1 51994U 22025AQ  24033.53233752  .00000212  00000-0  31442-4 0  9994,2 51994  53.2165 218.5354 0001420  85.2610 274.8544 15.08839281105251,6917.883,95.438,540.73,538.765,0.0
51994.0,STARLINK-3647,PAYLOAD,2024-02-02 19:08:06,15.08837121,0.0001305,53.2163,217.3456,91.7349,268.3793,3.1528e-05,2.14e-06,0.0,0 STARLINK-3647,1 51994U 22025AQ  24033.79729887  .00000214  00000-0  31528-4 0  9998,2 51994  53.2163 217.3456 0001305  91.7349 268.3793 15.08837121106821,6917.889,95.438,540.657,538.851,0.0
51994.0,STARLINK-3647,PAYLOAD,2024-02-02 22:18:52,15.08837859,0.0001268,53.2159,216.7499,91.8758,268.2379,3.5938e-05,2.84e-06,0.0,0 STARLINK-3647,1 51994U 22025AQ  24033.92977810  .00000284  00000-0  35938-4 0  9990,2 51994  53.2159 216.7499 0001268  91.8758 268.2379 15.08837859105319,6917.887,95.438,540.629,538.875,0.0
51994.0,STARLINK-3647,PAYLOAD,2024-02-03 11:01:58,15.08836919,0.0001342,53.216,214.3703,98.05,262.0645,6.5113e-07,-2.78e-06,0.0,0 STARLINK-3647,1 51994U 22025AQ  24034.45970100 -.00000278  00000-0  65113-6 0  9998,2 51994  53.2160 214.3703 0001342  98.0500 262.0645 15.08836919105392,6917.89,95.438,540.683,538.826,0.0
51994.0,STARLINK-3647,PAYLOAD,2024-02-03 18:58:53,15.0883749,0.0001295,53.216,212.8845,93.0915,267.0225,3.4022e-05,2.54e-06,0.0,0 STARLINK-3647,1 51994U 22025AQ  24034.79090022  .00000254  00000-0  34022-4 0  9997,2 51994  53.2160 212.8845 0001295  93.0915 267.0225 15.08837490105444,6917.888,95.438,540.649,538.857,0.0
51994.0,STARLINK-3647,PAYLOAD,2024-02-04 12:28:08,15.08836079,0.0001358,53.2166,209.6135,92.6063,267.5085,5.062e-05,5.18e-06,0.0,0 STARLINK-3647,1 51994U 22025AQ  24035.51954209  .00000518  00000-0  50620-4 0  9999,2 51994  53.2166 209.6135 0001358  92.6063 267.5085 15.08836079107088,6917.892,95.438,540.697,538.818,0.0
51994.0,STARLINK-3647,PAYLOAD,2024-02-04 18:49:40,15.08838827,0.0001362,53.2168,208.4241,92.0195,268.0954,6.9645e-05,8.21e-06,0.0,0 STARLINK-3647,1 51994U 22025AQ  24035.78450040  .00000821  00000-0  69645-4 0  9996,2 51994  53.2168 208.4241 0001362  92.0195 268.0954 15.08838827105598,6917.884,95.438,540.691,538.807,0.0
51994.0,STARLINK-3647,PAYLOAD,2024-02-05 12:18:55,15.08838895,0.0001348,53.217,205.153,90.6946,269.4201,4.9317e-05,4.97e-06,0.0,0 STARLINK-3647,1 51994U 22025AQ  24036.51314226  .00000497  00000-0  49317-4 0  9996,2 51994  53.2170 205.1530 0001348  90.6946 269.4201 15.08838895105706,6917.884,95.438,540.681,538.816,0.0
51994.0,STARLINK-3647,PAYLOAD,2024-02-05 18:40:27,15.088421,0.0001359,53.2171,203.9635,89.6117,270.5031,7.0398e-05,8.33e-06,0.0,0 STARLINK-3647,1 51994U 22025AQ  24036.77809976  .00000833  00000-0  70398-4 0  9992,2 51994  53.2171 203.9635 0001359  89.6117 270.5031 15.08842100107271,6917.874,95.437,540.679,538.799,0.0
51994.0,STARLINK-3647,PAYLOAD,2024-02-06 10:34:19,15.08839568,0.0001381,53.2173,200.9898,89.0738,271.0413,5.8564e-05,6.44e-06,0.0,0 STARLINK-3647,1 51994U 22025AQ  24037.44050194  .00000644  00000-0  58564-4 0  9998,2 51994  53.2173 200.9898 0001381  89.0738 271.0413 15.08839568105844,6917.882,95.438,540.702,538.791,0.0
51994.0,STARLINK-3647,PAYLOAD,2024-02-06 18:31:14,15.08844899,0.0001396,53.2171,199.5031,88.884,271.2312,7.3458e-05,8.81e-06,0.0,0 STARLINK-3647,1 51994U 22025AQ  24037.77169788  .00000881  00000-0  73458-4 0  9996,2 51994  53.2171 199.5031 0001396  88.8840 271.2312 15.08844899105899,6917.865,95.437,540.696,538.765,0.0
51994.0,STARLINK-3647,PAYLOAD,2024-02-07 16:46:39,15.0883401,0.0001324,53.2166,195.3411,94.3901,265.7243,0.00012904,1.766e-05,0.0,0 STARLINK-3647,1 51994U 22025AQ  24038.69906388  .00001766  00000-0  12904-3 0  9994,2 51994  53.2166 195.3411 0001324  94.3901 265.7243 15.08834010107561,6917.899,95.438,540.68,538.848,0.0
51994.0,STARLINK-3647,PAYLOAD,2024-02-08 13:26:40,15.08832119,0.000144,53.216,191.4735,98.5293,261.5863,-4.151e-05,-9.48e-06,0.0,0 STARLINK-3647,1 51994U 22025AQ  24039.56019135 -.00000948  00000-0 -41510-4 0  9995,2 51994  53.2160 191.4735 0001440  98.5293 261.5863 15.08832119106165,6917.904,95.438,540.766,538.773,0.0
51994.0,STARLINK-3647,PAYLOAD,2024-02-08 16:37:26,15.08833395,0.000145,53.2164,190.879,98.3278,261.7879,-3.276e-05,-8.09e-06,0.0,0 STARLINK-3647,1 51994U 22025AQ  24039.69267066 -.00000809  00000-0 -32760-4 0  9990,2 51994  53.2164 190.8790 0001450  98.3278 261.7879 15.08833395106183,6917.901,95.438,540.769,538.762,0.0
51994.0,STARLINK-3647,PAYLOAD,2024-02-09 13:17:27,15.08788122,0.0001724,53.2165,187.0129,100.8491,259.2696,0.00070392,0.00010917,0.0,0 STARLINK-3647,1 51994U 22025AQ  24040.55379072  .00010917  00000-0  70392-3 0  9999,2 51994  53.2165 187.0129 0001724 100.8491 259.2696 15.08788122106319,6918.039,95.441,541.097,538.711,0.0
51994.0,STARLINK-3647,PAYLOAD,2024-02-09 16:28:13,15.08843351,0.0001504,53.2179,186.4193,94.6008,265.5156,3.6558e-05,2.94e-06,0.0,0 STARLINK-3647,1 51994U 22025AQ  24040.68626638  .00000294  00000-0  36558-4 0  9990,2 51994  53.2179 186.4193 0001504  94.6008 265.5156 15.08843351107866,6917.87,95.437,540.776,538.695,0.0
51994.0,STARLINK-3647,PAYLOAD,2024-02-10 13:08:14,15.08840831,0.000149,53.2176,182.5542,87.5861,272.5301,0.00016236,2.297e-05,0.0,0 STARLINK-3647,1 51994U 22025AQ  24041.54738649  .00002297  00000-0  16236-3 0  9997,2 51994  53.2176 182.5542 0001490  87.5861 272.5301 15.08840831106465,6917.878,95.438,540.774,538.712,0.0
51994.0,STARLINK-3647,PAYLOAD,2024-02-10 16:19:00,15.08845499,0.0001506,53.2178,181.9601,87.9678,272.1486,0.00018191,2.609e-05,0.0,0 STARLINK-3647,1 51994U 22025AQ  24041.67986356  .00002609  00000-0  18191-3 0  9990,2 51994  53.2178 181.9601 0001506  87.9678 272.1486 15.08845499106481,6917.864,95.437,540.77,538.687,0.0
51994.0,STARLINK-3647,PAYLOAD,2024-02-11 14:34:24,15.08844836,0.0001492,53.2181,177.7974,97.5856,262.5306,5.4854e-05,5.85e-06,0.0,0 STARLINK-3647,1 51994U 22025AQ  24042.60722635  .00000585  00000-0  54854-4 0  9990,2 51994  53.2181 177.7974 0001492  97.5856 262.5306 15.08844836106624,6917.866,95.437,540.763,538.698,0.0
51994.0,STARLINK-3647,PAYLOAD,2024-02-11 17:45:10,15.0885167,0.0001489,53.2185,177.2016,87.9484,272.1678,0.00010664,1.41e-05,0.0,0 STARLINK-3647,1 51994U 22025AQ  24042.73970050  .00001410  00000-0  10664-3 0  9998,2 51994  53.2185 177.2016 0001489  87.9484 272.1678 15.08851670108171,6917.845,95.437,540.74,538.68,0.0
51994.0,STARLINK-3647,PAYLOAD,2024-02-12 14:25:11,15.08844591,0.00017,53.2181,173.3378,92.4609,267.6578,-3.0555e-06,-3.37e-06,0.0,0 STARLINK-3647,1 51994U 22025AQ  24043.60082726 -.00000337  00000-0 -30555-5 0  9991,2 51994  53.2181 173.3378 0001700  92.4609 267.6578 15.08844591106777,6917.866,95.437,540.907,538.555,0.0
